{"type":"FeatureCollection","metadata":{"name":"Tashkent Metro","fetchedAt":"2026-08-09T18:54:32.770Z","source":"OpenStreetMap contributors","license":"ODbL-1.0","sourceUrl":"https://www.openstreetmap.org/copyright"},"features":[{"type":"Feature","geometry":{"type":"Point","coordinates":[69.281759,41.3201924]},"properties":{"id":"osm-node-1772575475","name":"Abdulla Qodiriy","nameUz":"Abdulla Qodiriy","nameRu":"Абдулла Кадыри","nameEn":"Abdulla Qodirii","normalizedName":"abdulla qodiriy","operator":"Ассоциация «Тошшаҳартрансхизмат»","network":"Ташкентский метрополитен","wheelchair":"unknown","entranceCount":8,"entranceIds":["osm-node-1772575476","osm-node-1772575483","osm-node-1772575484","osm-node-1772575485","osm-node-1772575491","osm-node-1772575497","osm-node-3550608273","osm-node-3550608274"],"source":"openstreetmap","sourceId":"node/1772575475"}},{"type":"Feature","geometry":{"type":"Point","coordinates":[69.2542973,41.3189218]},"properties":{"id":"osm-node-1777740153","name":"Alisher Navoiy","nameUz":"Alisher Navoiy","nameRu":"Алишер Навои","nameEn":"Alisher Navoiy","normalizedName":"alisher navoiy","operator":"Ассоциация «Тошшаҳартрансхизмат»","network":"Ташкентский метрополитен","wheelchair":"unknown","entranceCount":2,"entranceIds":["osm-node-1777740171","osm-node-1777740172"],"source":"openstreetmap","sourceId":"node/1777740153"}},{"type":"Feature","geometry":{"type":"Point","coordinates":[69.2832691,41.3126738]},"properties":{"id":"osm-node-1777051509","name":"Amir Temur xiyoboni","nameUz":"Amir Temur xiyoboni","nameRu":"Сквер Амира Тимура","nameEn":"Amir Timur Square","normalizedName":"amir temur xiyoboni","operator":"Ассоциация «Тошшаҳартрансхизмат»","network":"Ташкентский метрополитен","wheelchair":"unknown","entranceCount":5,"entranceIds":["osm-node-1777051513","osm-node-1777051516","osm-node-1777051522","osm-node-1777051524","osm-node-1777051529"],"source":"openstreetmap","sourceId":"node/1777051509"}},{"type":"Feature","geometry":{"type":"Point","coordinates":[69.2062046,41.3446152]},"properties":{"id":"osm-node-1631211328","name":"Beruniy","nameUz":"Beruniy","nameRu":"Беруни","nameEn":"Beruniy","normalizedName":"beruniy","operator":"Ассоциация «Тошшаҳартрансхизмат»","network":"Ташкентский метрополитен","wheelchair":"unknown","entranceCount":3,"entranceIds":["osm-node-5323228253","osm-node-5323228264","osm-node-5433186399"],"source":"openstreetmap","sourceId":"node/1631211328"}},{"type":"Feature","geometry":{"type":"Point","coordinates":[69.2845697,41.3371701]},"properties":{"id":"osm-node-1775804030","name":"Bodomzor","nameUz":"Bodomzor","nameRu":"Бадамзар","nameEn":"Badamzar","normalizedName":"bodomzor","operator":"Ассоциация «Тошшаҳартрансхизмат»","network":"Ташкентский метрополитен","wheelchair":"unknown","entranceCount":3,"entranceIds":["osm-node-1775804031","osm-node-1775804037","osm-node-1775804041"],"source":"openstreetmap","sourceId":"node/1775804030"}},{"type":"Feature","geometry":{"type":"Point","coordinates":[69.3285598,41.3261054]},"properties":{"id":"osm-node-1777037919","name":"Buyuk Ipak Yoʻli (Maksim Gorkiy)","nameUz":"Buyuk Ipak Yoʻli (Maksim Gorkiy)","nameRu":"Буюк Ипак Йули (Максим Горький)","nameEn":"Buyuk Ipak Yuli (Maxim Gorky)","normalizedName":"buyuk ipak yoli","operator":"Ассоциация «Тошшаҳартрансхизмат»","network":"Ташкентский метрополитен","wheelchair":"unknown","entranceCount":7,"entranceIds":["osm-node-1777037938","osm-node-1777037942","osm-node-1777037955","osm-node-1777037960","osm-node-4185804596","osm-node-4694744697","osm-node-4694744698"],"source":"openstreetmap","sourceId":"node/1777037919"}},{"type":"Feature","geometry":{"type":"Point","coordinates":[69.3222445,41.2936401]},"properties":{"id":"osm-node-1777856012","name":"Do'stlik","nameUz":"Do'stlik","nameRu":"Дустлик (Чкалов)","nameEn":"Dustlik (Chkalov)","normalizedName":"dostlik","operator":"Ассоциация «Тошшаҳартрансхизмат»","network":"Ташкентский метрополитен","wheelchair":"unknown","entranceCount":3,"entranceIds":["osm-node-1765081835","osm-node-1765081836","osm-node-13538956795"],"source":"openstreetmap","sourceId":"node/1777856012"}},{"type":"Feature","geometry":{"type":"Point","coordinates":[69.2957419,41.3181644]},"properties":{"id":"osm-node-1775848270","name":"Hamid Olimjon","nameUz":"Hamid Olimjon","nameRu":"Хамид Алимджан","nameEn":"Hamid Alimjan","normalizedName":"hamid olimjon","operator":"Ассоциация «Тошшаҳартрансхизмат»","network":"Ташкентский метрополитен","wheelchair":"unknown","entranceCount":5,"entranceIds":["osm-node-1775848272","osm-node-1775848274","osm-node-1775848278","osm-node-1775848281","osm-node-1775848285"],"source":"openstreetmap","sourceId":"node/1775848270"}},{"type":"Feature","geometry":{"type":"Point","coordinates":[69.2647207,41.3051618]},"properties":{"id":"osm-node-1775892797","name":"Kosmonavtlar","nameUz":"Kosmonavtlar","nameRu":"Космонавтов","nameEn":"Cosmonauts","normalizedName":"kosmonavtlar","operator":"Ассоциация «Тошшаҳартрансхизмат»","network":"Ташкентский метрополитен","wheelchair":"unknown","entranceCount":3,"entranceIds":["osm-node-1775768063","osm-node-1775768065","osm-node-5433372094"],"source":"openstreetmap","sourceId":"node/1775892797"}},{"type":"Feature","geometry":{"type":"Point","coordinates":[69.3083229,41.2444713]},"properties":{"id":"osm-node-10537931294","name":"Matonat","nameUz":null,"nameRu":"Матонат","nameEn":"Matonat","normalizedName":"matonat","operator":"Ассоциация «Тошшаҳартрансхизмат»","network":"Ташкентский метрополитен","wheelchair":"unknown","entranceCount":0,"entranceIds":[],"source":"openstreetmap","sourceId":"node/10537931294"}},{"type":"Feature","geometry":{"type":"Point","coordinates":[69.3051276,41.2989847]},"properties":{"id":"osm-node-1765133546","name":"Mashinosozlar (Tashselmash)","nameUz":"Mashinosozlar (Tashselmash)","nameRu":"Машиносозлар (Ташсельмаш)","nameEn":"Mashinasozlar (Tashselmash)","normalizedName":"mashinosozlar","operator":"Ассоциация «Тошшаҳартрансхизмат»","network":"Ташкентский метрополитен","wheelchair":"unknown","entranceCount":2,"entranceIds":["osm-node-1765132137","osm-node-5432735054"],"source":"openstreetmap","sourceId":"node/1765133546"}},{"type":"Feature","geometry":{"type":"Point","coordinates":[69.2356663,41.3033944]},"properties":{"id":"osm-node-1252201486","name":"Milliy bogʻ (Komsomolskaya)","nameUz":"Milliy bogʻ (Komsomolskaya)","nameRu":"Миллий Бог (Комсомольская)","nameEn":"Milliy Bog (Komsomolskaya)","normalizedName":"milliy bog","operator":"Ассоциация «Тошшаҳартрансхизмат»","network":"Ташкентский метрополитен","wheelchair":"unknown","entranceCount":4,"entranceIds":["osm-node-1636120003","osm-node-1636120005","osm-node-1636120007","osm-node-1636120010"],"source":"openstreetmap","sourceId":"node/1252201486"}},{"type":"Feature","geometry":{"type":"Point","coordinates":[69.2744102,41.299661]},"properties":{"id":"osm-node-1579080943","name":"Mingoʻrik","nameUz":"Mingoʻrik","nameRu":"Минг Урик","nameEn":"Ming Urik","normalizedName":"mingorik","operator":"Ассоциация «Тошшаҳартрансхизмат»","network":"Ташкентский метрополитен","wheelchair":"unknown","entranceCount":3,"entranceIds":["osm-node-661184791","osm-node-1579080938","osm-node-1579080940"],"source":"openstreetmap","sourceId":"node/1579080943"}},{"type":"Feature","geometry":{"type":"Point","coordinates":[69.2834163,41.3268923]},"properties":{"id":"osm-node-1772595534","name":"Minor","nameUz":"Minor","nameRu":"Минор","nameEn":"Minor","normalizedName":"minor","operator":"АК «Узбекистон темир йуллари»","network":"Ташкентский метрополитен","wheelchair":"unknown","entranceCount":2,"entranceIds":["osm-node-1772595539","osm-node-1772595543"],"source":"openstreetmap","sourceId":"node/1772595534"}},{"type":"Feature","geometry":{"type":"Point","coordinates":[69.2125834,41.2820342]},"properties":{"id":"osm-node-852873027","name":"Mirzo Ulugʻbek (SSSR 50 yilligi)","nameUz":"Mirzo Ulugʻbek (SSSR 50 yilligi)","nameRu":"Мирзо Улугбек (50 лет СССР)","nameEn":"Mirzo Ulugbek (50 years USSR)","normalizedName":"mirzo ulugbek","operator":"Ассоциация «Тошшаҳартрансхизмат»","network":"Ташкентский метрополитен","wheelchair":"unknown","entranceCount":8,"entranceIds":["osm-node-1636135220","osm-node-1636135224","osm-node-1636135227","osm-node-1636135232","osm-node-1636135244","osm-node-1636135247","osm-node-4977114644","osm-node-5462640967"],"source":"openstreetmap","sourceId":"node/852873027"}},{"type":"Feature","geometry":{"type":"Point","coordinates":[69.2710646,41.3149453]},"properties":{"id":"osm-node-1778357473","name":"Mustaqillik maydoni","nameUz":"Mustaqillik maydoni","nameRu":"Мустакиллик майдони","nameEn":null,"normalizedName":"mustaqillik maydoni","operator":"Ассоциация «Тошшаҳартрансхизмат»","network":"Ташкентский метрополитен","wheelchair":"unknown","entranceCount":3,"entranceIds":["osm-node-1772565616","osm-node-1772565618","osm-node-1772565621"],"source":"openstreetmap","sourceId":"node/1778357473"}},{"type":"Feature","geometry":{"type":"Point","coordinates":[69.2236165,41.2918722]},"properties":{"id":"osm-node-563751850","name":"Novza (Hamza)","nameUz":"Novza (Hamza)","nameRu":"Новза (Хамза)","nameEn":"Novza (Hamza)","normalizedName":"novza","operator":"Ассоциация «Тошшаҳартрансхизмат»","network":"Ташкентский метрополитен","wheelchair":"unknown","entranceCount":8,"entranceIds":["osm-node-1636108186","osm-node-1636108190","osm-node-1636108195","osm-node-1636108199","osm-node-1636108219","osm-node-1636108221","osm-node-1636108222","osm-node-1636108224"],"source":"openstreetmap","sourceId":"node/563751850"}},{"type":"Feature","geometry":{"type":"Point","coordinates":[69.1961045,41.2566724]},"properties":{"id":"osm-node-1777845992","name":"Olmazor (Sobir Rahimov)","nameUz":"Olmazor (Sobir Rahimov)","nameRu":"Алмазар (Сабир Рахимов)","nameEn":"Almazar (Sabir Rakhimov)","normalizedName":"olmazor","operator":"Ассоциация «Тошшаҳартрансхизмат»","network":"Ташкентский метрополитен","wheelchair":"unknown","entranceCount":7,"entranceIds":["osm-node-1777845996","osm-node-1777846001","osm-node-1777846003","osm-node-1777846008","osm-node-1777846021","osm-node-1777846030","osm-node-9368644898"],"source":"openstreetmap","sourceId":"node/1777845992"}},{"type":"Feature","geometry":{"type":"Point","coordinates":[69.3603338,41.281705]},"properties":{"id":"osm-node-9972711745","name":"Olmos","nameUz":null,"nameRu":"Алмас","nameEn":"Almas","normalizedName":"olmos","operator":null,"network":"Ташкентский метрополитен","wheelchair":"unknown","entranceCount":0,"entranceIds":[],"source":"openstreetmap","sourceId":"node/9972711745"}},{"type":"Feature","geometry":{"type":"Point","coordinates":[69.2740501,41.2980128]},"properties":{"id":"osm-node-1579080941","name":"Oybek","nameUz":"Oybek","nameRu":"Айбек","nameEn":"Aybek","normalizedName":"oybek","operator":"Ассоциация «Тошшаҳартрансхизмат»","network":"Ташкентский метрополитен","wheelchair":"unknown","entranceCount":5,"entranceIds":["osm-node-661184747","osm-node-661184754","osm-node-661184760","osm-node-1579080936","osm-node-1776785654"],"source":"openstreetmap","sourceId":"node/1579080941"}},{"type":"Feature","geometry":{"type":"Point","coordinates":[69.2534057,41.3119437]},"properties":{"id":"osm-node-1777744035","name":"Ozbekiston","nameUz":"Ozbekiston","nameRu":"Узбекистан","nameEn":"Uzbekistan","normalizedName":"ozbekiston","operator":"Ассоциация «Тошшаҳартрансхизмат»","network":"Ташкентский метрополитен","wheelchair":"unknown","entranceCount":6,"entranceIds":["osm-node-1777744036","osm-node-1777744037","osm-node-1777744047","osm-node-1777744048","osm-node-1777744052","osm-node-5432790808"],"source":"openstreetmap","sourceId":"node/1777744035"}},{"type":"Feature","geometry":{"type":"Point","coordinates":[69.2550882,41.3177914]},"properties":{"id":"osm-node-1777740154","name":"Paxtakor","nameUz":"Paxtakor","nameRu":"Пахтакор","nameEn":"Pakhtakor","normalizedName":"paxtakor","operator":"Ассоциация «Тошшаҳартрансхизмат»","network":"Ташкентский метрополитен","wheelchair":"unknown","entranceCount":2,"entranceIds":["osm-node-1777740155","osm-node-5185753347"],"source":"openstreetmap","sourceId":"node/1777740154"}},{"type":"Feature","geometry":{"type":"Point","coordinates":[69.311102,41.3219481]},"properties":{"id":"osm-node-1777037922","name":"Pushkin","nameUz":"Pushkin","nameRu":"Пушкин","nameEn":"Pushkin","normalizedName":"pushkin","operator":"Ассоциация «Тошшаҳартрансхизмат»","network":"Ташкентский метрополитен","wheelchair":"unknown","entranceCount":2,"entranceIds":["osm-node-1777037932","osm-node-1777037936"],"source":"openstreetmap","sourceId":"node/1777037922"}},{"type":"Feature","geometry":{"type":"Point","coordinates":[69.2214112,41.2054229]},"properties":{"id":"osm-node-11218653778","name":"Qipchok","nameUz":null,"nameRu":"Кипчак","nameEn":"Kipchak","normalizedName":"qipchok","operator":"Ассоциация «Тошшаҳартрансхизмат»","network":"Ташкентский метрополитен","wheelchair":"unknown","entranceCount":0,"entranceIds":[],"source":"openstreetmap","sourceId":"node/11218653778"}},{"type":"Feature","geometry":{"type":"Point","coordinates":[69.299728,41.2444796]},"properties":{"id":"osm-node-10537931295","name":"Qiyot","nameUz":null,"nameRu":"Киёт","nameEn":"Qiyot","normalizedName":"qiyot","operator":"Ассоциация «Тошшаҳартрансхизмат»","network":null,"wheelchair":"unknown","entranceCount":1,"entranceIds":["osm-node-13322774128"],"source":"openstreetmap","sourceId":"node/10537931295"}},{"type":"Feature","geometry":{"type":"Point","coordinates":[69.2605033,41.2216367]},"properties":{"id":"osm-node-10637629352","name":"Quruvchilar (Stroiteley)","nameUz":"Quruvchilar (Stroiteley)","nameRu":"Курувчилар (Строителей)","nameEn":"Kuruvchilar (Stroiteley)","normalizedName":"quruvchilar","operator":"Ассоциация «Тошшаҳартрансхизмат»","network":"Ташкентский метрополитен","wheelchair":"unknown","entranceCount":1,"entranceIds":["osm-node-13326560028"],"source":"openstreetmap","sourceId":"node/10637629352"}},{"type":"Feature","geometry":{"type":"Point","coordinates":[69.3270001,41.2374579]},"properties":{"id":"osm-node-10537927083","name":"Qo‘yliq","nameUz":null,"nameRu":"Куйлюк","nameEn":"Kuylyuk","normalizedName":"qo yliq","operator":"Ассоциация «Тошшаҳартрансхизмат»","network":"Ташкентский метрополитен","wheelchair":"unknown","entranceCount":1,"entranceIds":["osm-node-7997001764"],"source":"openstreetmap","sourceId":"node/10537927083"}},{"type":"Feature","geometry":{"type":"Point","coordinates":[69.3647517,41.2652907]},"properties":{"id":"osm-node-10537927081","name":"Rohat","nameUz":null,"nameRu":"Рахат","nameEn":"Rakhat","normalizedName":"rohat","operator":"Ассоциация «Тошшаҳартрансхизмат»","network":"Ташкентский метрополитен","wheelchair":"unknown","entranceCount":0,"entranceIds":[],"source":"openstreetmap","sourceId":"node/10537927081"}},{"type":"Feature","geometry":{"type":"Point","coordinates":[69.2088382,41.2206379]},"properties":{"id":"osm-way-888864488","name":"Sergeli","nameUz":"Sergeli","nameRu":"Сергели","nameEn":"Sergeli","normalizedName":"sergeli","operator":"Ассоциация «Тошшаҳартрансхизмат»","network":"Ташкентский метрополитен","wheelchair":"unknown","entranceCount":1,"entranceIds":["osm-node-13352013991"],"source":"openstreetmap","sourceId":"way/888864488"}},{"type":"Feature","geometry":{"type":"Point","coordinates":[69.3231867,41.294628]},"properties":{"id":"osm-node-10537927077","name":"Texnopark","nameUz":null,"nameRu":"Технопарк","nameEn":"Technopark","normalizedName":"texnopark","operator":"Ассоциация «Тошшаҳартрансхизмат»","network":"Ташкентский метрополитен","wheelchair":"unknown","entranceCount":0,"entranceIds":[],"source":"openstreetmap","sourceId":"node/10537927077"}},{"type":"Feature","geometry":{"type":"Point","coordinates":[69.2191155,41.3323014]},"properties":{"id":"osm-node-1770328496","name":"Tinchlik","nameUz":"Tinchlik","nameRu":"Тинчлик","nameEn":"Tinchlik","normalizedName":"tinchlik","operator":"Ассоциация «Тошшаҳартрансхизмат»","network":"Ташкентский метрополитен","wheelchair":"unknown","entranceCount":5,"entranceIds":["osm-node-1390572522","osm-node-1770328506","osm-node-1770328516","osm-node-1770328542","osm-node-1770328548"],"source":"openstreetmap","sourceId":"node/1770328496"}},{"type":"Feature","geometry":{"type":"Point","coordinates":[69.2849568,41.2445139]},"properties":{"id":"osm-node-10538303447","name":"Tolarik","nameUz":null,"nameRu":"Таларык","nameEn":"Talaryk","normalizedName":"tolarik","operator":"Ассоциация «Тошшаҳартрансхизмат»","network":"Ташкентский метрополитен","wheelchair":"unknown","entranceCount":2,"entranceIds":["osm-node-13324929877","osm-node-13324929878"],"source":"openstreetmap","sourceId":"node/10538303447"}},{"type":"Feature","geometry":{"type":"Point","coordinates":[69.2877212,41.2932886]},"properties":{"id":"osm-node-1582352956","name":"Toshkent","nameUz":null,"nameRu":"Ташкент","nameEn":"Tashkent","normalizedName":"toshkent","operator":"Ассоциация «Тошшаҳартрансхизмат»","network":"Ташкентский метрополитен","wheelchair":"unknown","entranceCount":8,"entranceIds":["osm-node-1582352949","osm-node-1765136913","osm-node-1765136920","osm-node-1765136924","osm-node-1776779182","osm-node-1776779183","osm-node-1776779187","osm-node-1776779190"],"source":"openstreetmap","sourceId":"node/1582352956"}},{"type":"Feature","geometry":{"type":"Point","coordinates":[69.2960151,41.3775217]},"properties":{"id":"osm-node-7861940928","name":"Turkiston","nameUz":null,"nameRu":"Туркистан","nameEn":"Turkistan","normalizedName":"turkiston","operator":"Ассоциация «Тошшаҳартрансхизмат»","network":"Ташкентский метрополитен","wheelchair":"unknown","entranceCount":4,"entranceIds":["osm-node-7053509979","osm-node-7053517096","osm-node-7851505409","osm-node-7851505411"],"source":"openstreetmap","sourceId":"node/7861940928"}},{"type":"Feature","geometry":{"type":"Point","coordinates":[69.234154,41.2106813]},"properties":{"id":"osm-node-11218653779","name":"Turon","nameUz":null,"nameRu":"Туран","nameEn":"Turan","normalizedName":"turon","operator":"Ассоциация «Тошшаҳартрансхизмат»","network":"Ташкентский метрополитен","wheelchair":"unknown","entranceCount":0,"entranceIds":[],"source":"openstreetmap","sourceId":"node/11218653779"}},{"type":"Feature","geometry":{"type":"Point","coordinates":[69.3561844,41.2920125]},"properties":{"id":"osm-node-10537927080","name":"Tuzel","nameUz":null,"nameRu":"Тузель","nameEn":"Tuzel","normalizedName":"tuzel","operator":"Ассоциация «Тошшаҳартрансхизмат»","network":"Ташкентский метрополитен","wheelchair":"unknown","entranceCount":0,"entranceIds":[],"source":"openstreetmap","sourceId":"node/10537927080"}},{"type":"Feature","geometry":{"type":"Point","coordinates":[69.2430959,41.3118987]},"properties":{"id":"osm-node-568770460","name":"Xalqlar doʻstligi","nameUz":null,"nameRu":"Дружба Народов","nameEn":"Drujba Narodov","normalizedName":"xalqlar dostligi","operator":"Ассоциация «Тошшаҳартрансхизмат»","network":"Ташкентский метрополитен","wheelchair":"unknown","entranceCount":5,"entranceIds":["osm-node-1142950027","osm-node-1142950516","osm-node-1577932575","osm-node-3725779683","osm-node-6154109557"],"source":"openstreetmap","sourceId":"node/568770460"}},{"type":"Feature","geometry":{"type":"Point","coordinates":[69.2704353,41.2300103]},"properties":{"id":"osm-node-10637629351","name":"Xonobod","nameUz":null,"nameRu":"Ханабад","nameEn":"Khanabad","normalizedName":"xonobod","operator":"Ассоциация «Тошшаҳартрансхизмат»","network":"Ташкентский метрополитен","wheelchair":"unknown","entranceCount":1,"entranceIds":["osm-node-13326560037"],"source":"openstreetmap","sourceId":"node/10637629351"}},{"type":"Feature","geometry":{"type":"Point","coordinates":[69.214015,41.2135099]},"properties":{"id":"osm-node-10538244119","name":"Yangihayot","nameUz":null,"nameRu":"Янгихаёт","nameEn":"Yangihayot","normalizedName":"yangihayot","operator":"Ассоциация «Тошшаҳартрансхизмат»","network":"Ташкентский метрополитен","wheelchair":"unknown","entranceCount":0,"entranceIds":[],"source":"openstreetmap","sourceId":"node/10538244119"}},{"type":"Feature","geometry":{"type":"Point","coordinates":[69.3587242,41.2565075]},"properties":{"id":"osm-node-10537927082","name":"Yangiobod","nameUz":null,"nameRu":"Янгиабад","nameEn":"Yangiabad","normalizedName":"yangiobod","operator":"Ассоциация «Тошшаҳартрансхизмат»","network":"Ташкентский метрополитен","wheelchair":"unknown","entranceCount":1,"entranceIds":["osm-node-7997001763"],"source":"openstreetmap","sourceId":"node/10537927082"}},{"type":"Feature","geometry":{"type":"Point","coordinates":[69.3497831,41.2975859]},"properties":{"id":"osm-node-10537927079","name":"Yashnobod","nameUz":null,"nameRu":"Яшнабад","nameEn":"Yashnabad","normalizedName":"yashnobod","operator":"Ассоциация «Тошшаҳартрансхизмат»","network":"Ташкентский метрополитен","wheelchair":"unknown","entranceCount":1,"entranceIds":["osm-node-13418520188"],"source":"openstreetmap","sourceId":"node/10537927079"}},{"type":"Feature","geometry":{"type":"Point","coordinates":[69.2835077,41.3138871]},"properties":{"id":"osm-node-1777051512","name":"Yunus Rajabiy","nameUz":"Yunus Rajabiy","nameRu":"Юнyc Раджаби","nameEn":"Yunus Rajabiy","normalizedName":"yunus rajabiy","operator":null,"network":"Ташкентский метрополитен","wheelchair":"unknown","entranceCount":1,"entranceIds":["osm-node-1777051535"],"source":"openstreetmap","sourceId":"node/1777051512"}},{"type":"Feature","geometry":{"type":"Point","coordinates":[69.2923003,41.3668411]},"properties":{"id":"osm-node-7053509943","name":"Yunusobod","nameUz":null,"nameRu":"Юнусабад","nameEn":"Yunusabad","normalizedName":"yunusobod","operator":"Ассоциация «Тошшаҳартрансхизмат»","network":"Ташкентский метрополитен","wheelchair":"unknown","entranceCount":4,"entranceIds":["osm-node-4568986686","osm-node-4759259236","osm-node-7053509980","osm-node-7053509983"],"source":"openstreetmap","sourceId":"node/7053509943"}},{"type":"Feature","geometry":{"type":"Point","coordinates":[69.2039714,41.2273364]},"properties":{"id":"osm-node-10538244113","name":"O‘zgarish","nameUz":null,"nameRu":"Узгариш","nameEn":"Uzgarish","normalizedName":"o zgarish","operator":"Ассоциация «Тошшаҳартрансхизмат»","network":"Ташкентский метрополитен","wheelchair":"unknown","entranceCount":0,"entranceIds":[],"source":"openstreetmap","sourceId":"node/10538244113"}},{"type":"Feature","geometry":{"type":"Point","coordinates":[69.2458342,41.3278828]},"properties":{"id":"osm-node-1539317100","name":"Gʻafur Gʻulom","nameUz":"Gʻafur Gʻulom","nameRu":"Гафур Гулям","nameEn":"Gafur Gulyam","normalizedName":"gafur gulom","operator":"Ассоциация «Тошшаҳартрансхизмат»","network":"Ташкентский метрополитен","wheelchair":"unknown","entranceCount":2,"entranceIds":["osm-node-1786939640","osm-node-5433157103"],"source":"openstreetmap","sourceId":"node/1539317100"}},{"type":"Feature","geometry":{"type":"Point","coordinates":[69.2881069,41.3531185]},"properties":{"id":"osm-node-1633822600","name":"Shahriston","nameUz":null,"nameRu":"Шахристан","nameEn":"Shahristan","normalizedName":"shahriston","operator":"Ассоциация «Тошшаҳартрансхизмат»","network":"Ташкентский метрополитен","wheelchair":"unknown","entranceCount":4,"entranceIds":["osm-node-1226725679","osm-node-1633822602","osm-node-2564123992","osm-node-2564123993"],"source":"openstreetmap","sourceId":"node/1633822600"}},{"type":"Feature","geometry":{"type":"Point","coordinates":[69.2049735,41.274359]},"properties":{"id":"osm-node-854338154","name":"Chilonzor","nameUz":null,"nameRu":"Чиланзар","nameEn":"Chilanzar","normalizedName":"chilonzor","operator":"Ассоциация «Тошшаҳартрансхизмат»","network":"Ташкентский метрополитен","wheelchair":"unknown","entranceCount":8,"entranceIds":["osm-node-854338139","osm-node-854338140","osm-node-854338141","osm-node-854338142","osm-node-854338143","osm-node-854338144","osm-node-854338145","osm-node-5431967358"],"source":"openstreetmap","sourceId":"node/854338154"}},{"type":"Feature","geometry":{"type":"Point","coordinates":[69.2189575,41.2066965]},"properties":{"id":"osm-node-10538244120","name":"Chinor","nameUz":null,"nameRu":"Чинара","nameEn":"Chinara","normalizedName":"chinor","operator":"Ассоциация «Тошшаҳартрансхизмат»","network":"Ташкентский метрополитен","wheelchair":"unknown","entranceCount":0,"entranceIds":[],"source":"openstreetmap","sourceId":"node/10538244120"}},{"type":"Feature","geometry":{"type":"Point","coordinates":[69.2368152,41.3258649]},"properties":{"id":"osm-node-1577932485","name":"Chorsu","nameUz":"Chorsu","nameRu":"Чорсу","nameEn":"Chorsu","normalizedName":"chorsu","operator":"Ассоциация «Тошшаҳартрансхизмат»","network":"Ташкентский метрополитен","wheelchair":"unknown","entranceCount":3,"entranceIds":["osm-node-1390572520","osm-node-1577932476","osm-node-1777850319"],"source":"openstreetmap","sourceId":"node/1577932485"}},{"type":"Feature","geometry":{"type":"Point","coordinates":[69.1960345,41.2382496]},"properties":{"id":"osm-node-10538244112","name":"Choshtepa","nameUz":"Choshtepa","nameRu":"Чаштепа","nameEn":"Chashtepa","normalizedName":"choshtepa","operator":null,"network":"Ташкентский метрополитен","wheelchair":"unknown","entranceCount":0,"entranceIds":[],"source":"openstreetmap","sourceId":"node/10538244112"}}]}
