{"type":"FeatureCollection","metadata":{"name":"Tashkent Metro","fetchedAt":"2026-08-09T18:54:32.770Z","source":"OpenStreetMap contributors","license":"ODbL-1.0","sourceUrl":"https://www.openstreetmap.org/copyright"},"features":[{"type":"Feature","geometry":{"type":"Point","coordinates":[69.2812252,41.3191003]},"properties":{"id":"osm-node-1772575476","name":"Абдулла Кодирий","ref":null,"access":"both","wheelchair":"unknown","stationId":"osm-node-1772575475","stationName":"Abdulla Qodiriy","distanceToStationCenter":129,"source":"openstreetmap","sourceId":"node/1772575476"}},{"type":"Feature","geometry":{"type":"Point","coordinates":[69.2820487,41.3193584]},"properties":{"id":"osm-node-1772575483","name":"Абдулла Кадыри","ref":null,"access":"both","wheelchair":"unknown","stationId":"osm-node-1772575475","stationName":"Abdulla Qodiriy","distanceToStationCenter":96,"source":"openstreetmap","sourceId":"node/1772575483"}},{"type":"Feature","geometry":{"type":"Point","coordinates":[69.2812865,41.319409]},"properties":{"id":"osm-node-1772575484","name":"Абдулла Кадыри","ref":null,"access":"both","wheelchair":"unknown","stationId":"osm-node-1772575475","stationName":"Abdulla Qodiriy","distanceToStationCenter":96,"source":"openstreetmap","sourceId":"node/1772575484"}},{"type":"Feature","geometry":{"type":"Point","coordinates":[69.2826734,41.3210283]},"properties":{"id":"osm-node-1772575485","name":"Абдулла Кадыри","ref":null,"access":"both","wheelchair":"unknown","stationId":"osm-node-1772575475","stationName":"Abdulla Qodiriy","distanceToStationCenter":120,"source":"openstreetmap","sourceId":"node/1772575485"}},{"type":"Feature","geometry":{"type":"Point","coordinates":[69.2813772,41.3211997]},"properties":{"id":"osm-node-1772575491","name":"Абдулла Кадыри","ref":null,"access":"both","wheelchair":"unknown","stationId":"osm-node-1772575475","stationName":"Abdulla Qodiriy","distanceToStationCenter":116,"source":"openstreetmap","sourceId":"node/1772575491"}},{"type":"Feature","geometry":{"type":"Point","coordinates":[69.2817529,41.3217983]},"properties":{"id":"osm-node-1772575497","name":"Абдулла Кадыри","ref":null,"access":"both","wheelchair":"unknown","stationId":"osm-node-1772575475","stationName":"Abdulla Qodiriy","distanceToStationCenter":179,"source":"openstreetmap","sourceId":"node/1772575497"}},{"type":"Feature","geometry":{"type":"Point","coordinates":[69.2825927,41.32203]},"properties":{"id":"osm-node-3550608273","name":"Абдулла Кадыри","ref":null,"access":"both","wheelchair":"unknown","stationId":"osm-node-1772575475","stationName":"Abdulla Qodiriy","distanceToStationCenter":216,"source":"openstreetmap","sourceId":"node/3550608273"}},{"type":"Feature","geometry":{"type":"Point","coordinates":[69.2827441,41.3220143]},"properties":{"id":"osm-node-3550608274","name":"Абдулла Кадыри","ref":null,"access":"both","wheelchair":"unknown","stationId":"osm-node-1772575475","stationName":"Abdulla Qodiriy","distanceToStationCenter":219,"source":"openstreetmap","sourceId":"node/3550608274"}},{"type":"Feature","geometry":{"type":"Point","coordinates":[69.2546696,41.3200149]},"properties":{"id":"osm-node-1777740171","name":null,"ref":null,"access":"both","wheelchair":"unknown","stationId":"osm-node-1777740153","stationName":"Alisher Navoiy","distanceToStationCenter":125,"source":"openstreetmap","sourceId":"node/1777740171"}},{"type":"Feature","geometry":{"type":"Point","coordinates":[69.2540842,41.32003]},"properties":{"id":"osm-node-1777740172","name":null,"ref":null,"access":"both","wheelchair":"unknown","stationId":"osm-node-1777740153","stationName":"Alisher Navoiy","distanceToStationCenter":125,"source":"openstreetmap","sourceId":"node/1777740172"}},{"type":"Feature","geometry":{"type":"Point","coordinates":[69.2817984,41.3116247]},"properties":{"id":"osm-node-1777051513","name":"Amir Temur xiyoboni","ref":null,"access":"both","wheelchair":"unknown","stationId":"osm-node-1777051509","stationName":"Amir Temur xiyoboni","distanceToStationCenter":169,"source":"openstreetmap","sourceId":"node/1777051513"}},{"type":"Feature","geometry":{"type":"Point","coordinates":[69.2811049,41.3117331]},"properties":{"id":"osm-node-1777051516","name":"Amir Temur xiyoboni","ref":null,"access":"both","wheelchair":"unknown","stationId":"osm-node-1777051509","stationName":"Amir Temur xiyoboni","distanceToStationCenter":209,"source":"openstreetmap","sourceId":"node/1777051516"}},{"type":"Feature","geometry":{"type":"Point","coordinates":[69.2826603,41.3122286]},"properties":{"id":"osm-node-1777051522","name":"Amir Temur xiyoboni","ref":null,"access":"both","wheelchair":"unknown","stationId":"osm-node-1777051509","stationName":"Amir Temur xiyoboni","distanceToStationCenter":71,"source":"openstreetmap","sourceId":"node/1777051522"}},{"type":"Feature","geometry":{"type":"Point","coordinates":[69.2819726,41.3123082]},"properties":{"id":"osm-node-1777051524","name":"Amir Temur xiyoboni","ref":null,"access":"both","wheelchair":"unknown","stationId":"osm-node-1777051509","stationName":"Amir Temur xiyoboni","distanceToStationCenter":116,"source":"openstreetmap","sourceId":"node/1777051524"}},{"type":"Feature","geometry":{"type":"Point","coordinates":[69.2846159,41.3130826]},"properties":{"id":"osm-node-1777051529","name":"Yunus Rajabiy","ref":null,"access":"both","wheelchair":"unknown","stationId":"osm-node-1777051509","stationName":"Amir Temur xiyoboni","distanceToStationCenter":121,"source":"openstreetmap","sourceId":"node/1777051529"}},{"type":"Feature","geometry":{"type":"Point","coordinates":[69.2058928,41.3453831]},"properties":{"id":"osm-node-5323228253","name":"Беруни","ref":null,"access":"both","wheelchair":"unknown","stationId":"osm-node-1631211328","stationName":"Beruniy","distanceToStationCenter":89,"source":"openstreetmap","sourceId":"node/5323228253"}},{"type":"Feature","geometry":{"type":"Point","coordinates":[69.2061933,41.3441358]},"properties":{"id":"osm-node-5323228264","name":"Beruniy","ref":null,"access":"both","wheelchair":"unknown","stationId":"osm-node-1631211328","stationName":"Beruniy","distanceToStationCenter":53,"source":"openstreetmap","sourceId":"node/5323228264"}},{"type":"Feature","geometry":{"type":"Point","coordinates":[69.2065884,41.3460978]},"properties":{"id":"osm-node-5433186399","name":"Беруни","ref":null,"access":"both","wheelchair":"unknown","stationId":"osm-node-1631211328","stationName":"Beruniy","distanceToStationCenter":168,"source":"openstreetmap","sourceId":"node/5433186399"}},{"type":"Feature","geometry":{"type":"Point","coordinates":[69.2845821,41.3360039]},"properties":{"id":"osm-node-1775804031","name":"Bodomzor","ref":null,"access":"both","wheelchair":"unknown","stationId":"osm-node-1775804030","stationName":"Bodomzor","distanceToStationCenter":130,"source":"openstreetmap","sourceId":"node/1775804031"}},{"type":"Feature","geometry":{"type":"Point","coordinates":[69.2842108,41.3366208]},"properties":{"id":"osm-node-1775804037","name":"Bodomzor","ref":null,"access":"both","wheelchair":"unknown","stationId":"osm-node-1775804030","stationName":"Bodomzor","distanceToStationCenter":68,"source":"openstreetmap","sourceId":"node/1775804037"}},{"type":"Feature","geometry":{"type":"Point","coordinates":[69.2848531,41.3378947]},"properties":{"id":"osm-node-1775804041","name":"Bodomzor","ref":null,"access":"both","wheelchair":"unknown","stationId":"osm-node-1775804030","stationName":"Bodomzor","distanceToStationCenter":84,"source":"openstreetmap","sourceId":"node/1775804041"}},{"type":"Feature","geometry":{"type":"Point","coordinates":[69.3274711,41.325784]},"properties":{"id":"osm-node-1777037938","name":"Buyuk Ipak Yo'li","ref":null,"access":"both","wheelchair":"yes","stationId":"osm-node-1777037919","stationName":"Buyuk Ipak Yoʻli (Maksim Gorkiy)","distanceToStationCenter":98,"source":"openstreetmap","sourceId":"node/1777037938"}},{"type":"Feature","geometry":{"type":"Point","coordinates":[69.3298608,41.3261211]},"properties":{"id":"osm-node-1777037942","name":"Buyuk Ipak Yo'li","ref":null,"access":"both","wheelchair":"unknown","stationId":"osm-node-1777037919","stationName":"Buyuk Ipak Yoʻli (Maksim Gorkiy)","distanceToStationCenter":109,"source":"openstreetmap","sourceId":"node/1777037942"}},{"type":"Feature","geometry":{"type":"Point","coordinates":[69.3299902,41.3265166]},"properties":{"id":"osm-node-1777037955","name":"Buyuk Ipak Yo'li","ref":null,"access":"both","wheelchair":"unknown","stationId":"osm-node-1777037919","stationName":"Buyuk Ipak Yoʻli (Maksim Gorkiy)","distanceToStationCenter":128,"source":"openstreetmap","sourceId":"node/1777037955"}},{"type":"Feature","geometry":{"type":"Point","coordinates":[69.3271169,41.3266822]},"properties":{"id":"osm-node-1777037960","name":"Buyuk Ipak Yo'li","ref":null,"access":"both","wheelchair":"unknown","stationId":"osm-node-1777037919","stationName":"Buyuk Ipak Yoʻli (Maksim Gorkiy)","distanceToStationCenter":136,"source":"openstreetmap","sourceId":"node/1777037960"}},{"type":"Feature","geometry":{"type":"Point","coordinates":[69.32783,41.3262559]},"properties":{"id":"osm-node-4185804596","name":"Buyuk Ipak Yo'li","ref":null,"access":"both","wheelchair":"unknown","stationId":"osm-node-1777037919","stationName":"Buyuk Ipak Yoʻli (Maksim Gorkiy)","distanceToStationCenter":63,"source":"openstreetmap","sourceId":"node/4185804596"}},{"type":"Feature","geometry":{"type":"Point","coordinates":[69.3263976,41.3266494]},"properties":{"id":"osm-node-4694744697","name":"Buyuk Ipak Yo'li","ref":null,"access":"both","wheelchair":"yes","stationId":"osm-node-1777037919","stationName":"Buyuk Ipak Yoʻli (Maksim Gorkiy)","distanceToStationCenter":190,"source":"openstreetmap","sourceId":"node/4694744697"}},{"type":"Feature","geometry":{"type":"Point","coordinates":[69.3266812,41.3269346]},"properties":{"id":"osm-node-4694744698","name":"Buyuk Ipak Yo'li","ref":null,"access":"both","wheelchair":"unknown","stationId":"osm-node-1777037919","stationName":"Buyuk Ipak Yoʻli (Maksim Gorkiy)","distanceToStationCenter":182,"source":"openstreetmap","sourceId":"node/4694744698"}},{"type":"Feature","geometry":{"type":"Point","coordinates":[69.3235642,41.2935605]},"properties":{"id":"osm-node-1765081835","name":null,"ref":null,"access":"both","wheelchair":"unknown","stationId":"osm-node-1777856012","stationName":"Do'stlik","distanceToStationCenter":111,"source":"openstreetmap","sourceId":"node/1765081835"}},{"type":"Feature","geometry":{"type":"Point","coordinates":[69.3215327,41.2938156]},"properties":{"id":"osm-node-1765081836","name":"Do'stlik","ref":null,"access":"both","wheelchair":"unknown","stationId":"osm-node-1777856012","stationName":"Do'stlik","distanceToStationCenter":63,"source":"openstreetmap","sourceId":"node/1765081836"}},{"type":"Feature","geometry":{"type":"Point","coordinates":[69.3218206,41.294263]},"properties":{"id":"osm-node-13538956795","name":null,"ref":null,"access":"both","wheelchair":"unknown","stationId":"osm-node-1777856012","stationName":"Do'stlik","distanceToStationCenter":78,"source":"openstreetmap","sourceId":"node/13538956795"}},{"type":"Feature","geometry":{"type":"Point","coordinates":[69.2948799,41.3175882]},"properties":{"id":"osm-node-1775848272","name":"Hamid Olimjon","ref":null,"access":"both","wheelchair":"unknown","stationId":"osm-node-1775848270","stationName":"Hamid Olimjon","distanceToStationCenter":96,"source":"openstreetmap","sourceId":"node/1775848272"}},{"type":"Feature","geometry":{"type":"Point","coordinates":[69.2943235,41.3177979]},"properties":{"id":"osm-node-1775848274","name":"Hamid Olimjon","ref":null,"access":"both","wheelchair":"unknown","stationId":"osm-node-1775848270","stationName":"Hamid Olimjon","distanceToStationCenter":125,"source":"openstreetmap","sourceId":"node/1775848274"}},{"type":"Feature","geometry":{"type":"Point","coordinates":[69.2948113,41.3180016]},"properties":{"id":"osm-node-1775848278","name":"Hamid Olimjon","ref":null,"access":"both","wheelchair":"unknown","stationId":"osm-node-1775848270","stationName":"Hamid Olimjon","distanceToStationCenter":80,"source":"openstreetmap","sourceId":"node/1775848278"}},{"type":"Feature","geometry":{"type":"Point","coordinates":[69.2968985,41.3185037]},"properties":{"id":"osm-node-1775848281","name":"Hamid Olimjon","ref":null,"access":"both","wheelchair":"unknown","stationId":"osm-node-1775848270","stationName":"Hamid Olimjon","distanceToStationCenter":104,"source":"openstreetmap","sourceId":"node/1775848281"}},{"type":"Feature","geometry":{"type":"Point","coordinates":[69.2967006,41.3187988]},"properties":{"id":"osm-node-1775848285","name":"Hamid Olimjon","ref":null,"access":"both","wheelchair":"unknown","stationId":"osm-node-1775848270","stationName":"Hamid Olimjon","distanceToStationCenter":107,"source":"openstreetmap","sourceId":"node/1775848285"}},{"type":"Feature","geometry":{"type":"Point","coordinates":[69.2660876,41.3050204]},"properties":{"id":"osm-node-1775768063","name":"Kosmonavtlar","ref":null,"access":"both","wheelchair":"limited","stationId":"osm-node-1775892797","stationName":"Kosmonavtlar","distanceToStationCenter":115,"source":"openstreetmap","sourceId":"node/1775768063"}},{"type":"Feature","geometry":{"type":"Point","coordinates":[69.2640499,41.305159]},"properties":{"id":"osm-node-1775768065","name":"Kosmonavtlar","ref":null,"access":"both","wheelchair":"unknown","stationId":"osm-node-1775892797","stationName":"Kosmonavtlar","distanceToStationCenter":56,"source":"openstreetmap","sourceId":"node/1775768065"}},{"type":"Feature","geometry":{"type":"Point","coordinates":[69.2637188,41.3057678]},"properties":{"id":"osm-node-5433372094","name":"Kosmonavtlar","ref":null,"access":"both","wheelchair":"unknown","stationId":"osm-node-1775892797","stationName":"Kosmonavtlar","distanceToStationCenter":107,"source":"openstreetmap","sourceId":"node/5433372094"}},{"type":"Feature","geometry":{"type":"Point","coordinates":[69.3045546,41.2994757]},"properties":{"id":"osm-node-1765132137","name":"Mashinasozlar","ref":null,"access":"both","wheelchair":"no","stationId":"osm-node-1765133546","stationName":"Mashinosozlar (Tashselmash)","distanceToStationCenter":73,"source":"openstreetmap","sourceId":"node/1765132137"}},{"type":"Feature","geometry":{"type":"Point","coordinates":[69.3066709,41.2990361]},"properties":{"id":"osm-node-5432735054","name":"Mashinasozlar","ref":null,"access":"both","wheelchair":"unknown","stationId":"osm-node-1765133546","stationName":"Mashinosozlar (Tashselmash)","distanceToStationCenter":129,"source":"openstreetmap","sourceId":"node/5432735054"}},{"type":"Feature","geometry":{"type":"Point","coordinates":[69.2348837,41.3042972]},"properties":{"id":"osm-node-1636120003","name":"Milliy bogʻ","ref":null,"access":"both","wheelchair":"unknown","stationId":"osm-node-1252201486","stationName":"Milliy bogʻ (Komsomolskaya)","distanceToStationCenter":120,"source":"openstreetmap","sourceId":"node/1636120003"}},{"type":"Feature","geometry":{"type":"Point","coordinates":[69.2351367,41.3046303]},"properties":{"id":"osm-node-1636120005","name":"Milliy bogʻ","ref":null,"access":"both","wheelchair":"unknown","stationId":"osm-node-1252201486","stationName":"Milliy bogʻ (Komsomolskaya)","distanceToStationCenter":144,"source":"openstreetmap","sourceId":"node/1636120005"}},{"type":"Feature","geometry":{"type":"Point","coordinates":[69.2360685,41.3042328]},"properties":{"id":"osm-node-1636120007","name":"Milliy bogʻ","ref":null,"access":"both","wheelchair":"unknown","stationId":"osm-node-1252201486","stationName":"Milliy bogʻ (Komsomolskaya)","distanceToStationCenter":99,"source":"openstreetmap","sourceId":"node/1636120007"}},{"type":"Feature","geometry":{"type":"Point","coordinates":[69.2358092,41.3039012]},"properties":{"id":"osm-node-1636120010","name":"Milliy bogʻ","ref":null,"access":"both","wheelchair":"unknown","stationId":"osm-node-1252201486","stationName":"Milliy bogʻ (Komsomolskaya)","distanceToStationCenter":58,"source":"openstreetmap","sourceId":"node/1636120010"}},{"type":"Feature","geometry":{"type":"Point","coordinates":[69.2731627,41.299294]},"properties":{"id":"osm-node-661184791","name":"Mingoʻrik","ref":null,"access":"both","wheelchair":"unknown","stationId":"osm-node-1579080943","stationName":"Mingoʻrik","distanceToStationCenter":112,"source":"openstreetmap","sourceId":"node/661184791"}},{"type":"Feature","geometry":{"type":"Point","coordinates":[69.275102,41.3003487]},"properties":{"id":"osm-node-1579080938","name":"Mingoʻrik","ref":null,"access":"both","wheelchair":"unknown","stationId":"osm-node-1579080943","stationName":"Mingoʻrik","distanceToStationCenter":96,"source":"openstreetmap","sourceId":"node/1579080938"}},{"type":"Feature","geometry":{"type":"Point","coordinates":[69.2753707,41.3000611]},"properties":{"id":"osm-node-1579080940","name":"Mingoʻrik","ref":null,"access":"both","wheelchair":"unknown","stationId":"osm-node-1579080943","stationName":"Mingoʻrik","distanceToStationCenter":92,"source":"openstreetmap","sourceId":"node/1579080940"}},{"type":"Feature","geometry":{"type":"Point","coordinates":[69.2833703,41.3262333]},"properties":{"id":"osm-node-1772595539","name":null,"ref":null,"access":"both","wheelchair":"unknown","stationId":"osm-node-1772595534","stationName":"Minor","distanceToStationCenter":73,"source":"openstreetmap","sourceId":"node/1772595539"}},{"type":"Feature","geometry":{"type":"Point","coordinates":[69.2835133,41.3274475]},"properties":{"id":"osm-node-1772595543","name":null,"ref":null,"access":"both","wheelchair":"unknown","stationId":"osm-node-1772595534","stationName":"Minor","distanceToStationCenter":62,"source":"openstreetmap","sourceId":"node/1772595543"}},{"type":"Feature","geometry":{"type":"Point","coordinates":[69.2111391,41.2816016]},"properties":{"id":"osm-node-1636135220","name":"Mirzo Ulugʻbek","ref":null,"access":"both","wheelchair":"unknown","stationId":"osm-node-852873027","stationName":"Mirzo Ulugʻbek (SSSR 50 yilligi)","distanceToStationCenter":130,"source":"openstreetmap","sourceId":"node/1636135220"}},{"type":"Feature","geometry":{"type":"Point","coordinates":[69.2114572,41.2818854]},"properties":{"id":"osm-node-1636135224","name":"Mirzo Ulugʻbek","ref":null,"access":"both","wheelchair":"unknown","stationId":"osm-node-852873027","stationName":"Mirzo Ulugʻbek (SSSR 50 yilligi)","distanceToStationCenter":96,"source":"openstreetmap","sourceId":"node/1636135224"}},{"type":"Feature","geometry":{"type":"Point","coordinates":[69.2118953,41.2810825]},"properties":{"id":"osm-node-1636135227","name":"Mirzo Ulugʻbek","ref":null,"access":"both","wheelchair":"unknown","stationId":"osm-node-852873027","stationName":"Mirzo Ulugʻbek (SSSR 50 yilligi)","distanceToStationCenter":120,"source":"openstreetmap","sourceId":"node/1636135227"}},{"type":"Feature","geometry":{"type":"Point","coordinates":[69.2124644,41.2828161]},"properties":{"id":"osm-node-1636135232","name":"Mirzo Ulugʻbek","ref":null,"access":"both","wheelchair":"unknown","stationId":"osm-node-852873027","stationName":"Mirzo Ulugʻbek (SSSR 50 yilligi)","distanceToStationCenter":88,"source":"openstreetmap","sourceId":"node/1636135232"}},{"type":"Feature","geometry":{"type":"Point","coordinates":[69.2127854,41.2831041]},"properties":{"id":"osm-node-1636135244","name":"Mirzo Ulugʻbek","ref":null,"access":"both","wheelchair":"unknown","stationId":"osm-node-852873027","stationName":"Mirzo Ulugʻbek (SSSR 50 yilligi)","distanceToStationCenter":120,"source":"openstreetmap","sourceId":"node/1636135244"}},{"type":"Feature","geometry":{"type":"Point","coordinates":[69.2132484,41.2822957]},"properties":{"id":"osm-node-1636135247","name":"Mirzo Ulugʻbek","ref":null,"access":"both","wheelchair":"unknown","stationId":"osm-node-852873027","stationName":"Mirzo Ulugʻbek (SSSR 50 yilligi)","distanceToStationCenter":63,"source":"openstreetmap","sourceId":"node/1636135247"}},{"type":"Feature","geometry":{"type":"Point","coordinates":[69.2136034,41.2826107]},"properties":{"id":"osm-node-4977114644","name":"Mirzo Ulugʻbek","ref":null,"access":"both","wheelchair":"unknown","stationId":"osm-node-852873027","stationName":"Mirzo Ulugʻbek (SSSR 50 yilligi)","distanceToStationCenter":107,"source":"openstreetmap","sourceId":"node/4977114644"}},{"type":"Feature","geometry":{"type":"Point","coordinates":[69.2122822,41.2814174]},"properties":{"id":"osm-node-5462640967","name":"Mirzo Ulugʻbek","ref":null,"access":"both","wheelchair":"unknown","stationId":"osm-node-852873027","stationName":"Mirzo Ulugʻbek (SSSR 50 yilligi)","distanceToStationCenter":73,"source":"openstreetmap","sourceId":"node/5462640967"}},{"type":"Feature","geometry":{"type":"Point","coordinates":[69.2718798,41.3143793]},"properties":{"id":"osm-node-1772565616","name":"Mustaqilik maydoni","ref":null,"access":"both","wheelchair":"unknown","stationId":"osm-node-1778357473","stationName":"Mustaqillik maydoni","distanceToStationCenter":93,"source":"openstreetmap","sourceId":"node/1772565616"}},{"type":"Feature","geometry":{"type":"Point","coordinates":[69.2705979,41.3153635]},"properties":{"id":"osm-node-1772565618","name":"Mustaqilik maydoni","ref":null,"access":"both","wheelchair":"no","stationId":"osm-node-1778357473","stationName":"Mustaqillik maydoni","distanceToStationCenter":61,"source":"openstreetmap","sourceId":"node/1772565618"}},{"type":"Feature","geometry":{"type":"Point","coordinates":[69.2698604,41.3155918]},"properties":{"id":"osm-node-1772565621","name":"Mustaqilik maydoni","ref":null,"access":"both","wheelchair":"no","stationId":"osm-node-1778357473","stationName":"Mustaqillik maydoni","distanceToStationCenter":124,"source":"openstreetmap","sourceId":"node/1772565621"}},{"type":"Feature","geometry":{"type":"Point","coordinates":[69.2233209,41.2913702]},"properties":{"id":"osm-node-1636108186","name":"Novza","ref":null,"access":"both","wheelchair":"yes","stationId":"osm-node-563751850","stationName":"Novza (Hamza)","distanceToStationCenter":61,"source":"openstreetmap","sourceId":"node/1636108186"}},{"type":"Feature","geometry":{"type":"Point","coordinates":[69.2230005,41.2910778]},"properties":{"id":"osm-node-1636108190","name":"Novza","ref":null,"access":"both","wheelchair":"unknown","stationId":"osm-node-563751850","stationName":"Novza (Hamza)","distanceToStationCenter":102,"source":"openstreetmap","sourceId":"node/1636108190"}},{"type":"Feature","geometry":{"type":"Point","coordinates":[69.2225279,41.291858]},"properties":{"id":"osm-node-1636108195","name":"Novza","ref":null,"access":"both","wheelchair":"unknown","stationId":"osm-node-563751850","stationName":"Novza (Hamza)","distanceToStationCenter":91,"source":"openstreetmap","sourceId":"node/1636108195"}},{"type":"Feature","geometry":{"type":"Point","coordinates":[69.2222301,41.2915872]},"properties":{"id":"osm-node-1636108199","name":"Novza","ref":null,"access":"both","wheelchair":"unknown","stationId":"osm-node-563751850","stationName":"Novza (Hamza)","distanceToStationCenter":120,"source":"openstreetmap","sourceId":"node/1636108199"}},{"type":"Feature","geometry":{"type":"Point","coordinates":[69.2242938,41.2922247]},"properties":{"id":"osm-node-1636108219","name":"Novza","ref":null,"access":"both","wheelchair":"unknown","stationId":"osm-node-563751850","stationName":"Novza (Hamza)","distanceToStationCenter":69,"source":"openstreetmap","sourceId":"node/1636108219"}},{"type":"Feature","geometry":{"type":"Point","coordinates":[69.2246278,41.2925208]},"properties":{"id":"osm-node-1636108221","name":"Novza","ref":null,"access":"both","wheelchair":"no","stationId":"osm-node-563751850","stationName":"Novza (Hamza)","distanceToStationCenter":111,"source":"openstreetmap","sourceId":"node/1636108221"}},{"type":"Feature","geometry":{"type":"Point","coordinates":[69.2235131,41.2927462]},"properties":{"id":"osm-node-1636108222","name":"Novza","ref":null,"access":"both","wheelchair":"unknown","stationId":"osm-node-563751850","stationName":"Novza (Hamza)","distanceToStationCenter":98,"source":"openstreetmap","sourceId":"node/1636108222"}},{"type":"Feature","geometry":{"type":"Point","coordinates":[69.2238291,41.2930303]},"properties":{"id":"osm-node-1636108224","name":"Novza","ref":null,"access":"both","wheelchair":"unknown","stationId":"osm-node-563751850","stationName":"Novza (Hamza)","distanceToStationCenter":130,"source":"openstreetmap","sourceId":"node/1636108224"}},{"type":"Feature","geometry":{"type":"Point","coordinates":[69.1959174,41.255652]},"properties":{"id":"osm-node-1777845996","name":null,"ref":null,"access":"both","wheelchair":"unknown","stationId":"osm-node-1777845992","stationName":"Olmazor (Sobir Rahimov)","distanceToStationCenter":115,"source":"openstreetmap","sourceId":"node/1777845996"}},{"type":"Feature","geometry":{"type":"Point","coordinates":[69.195918,41.2560534]},"properties":{"id":"osm-node-1777846001","name":null,"ref":null,"access":"both","wheelchair":"yes","stationId":"osm-node-1777845992","stationName":"Olmazor (Sobir Rahimov)","distanceToStationCenter":71,"source":"openstreetmap","sourceId":"node/1777846001"}},{"type":"Feature","geometry":{"type":"Point","coordinates":[69.1949369,41.2569248]},"properties":{"id":"osm-node-1777846003","name":null,"ref":null,"access":"both","wheelchair":"unknown","stationId":"osm-node-1777845992","stationName":"Olmazor (Sobir Rahimov)","distanceToStationCenter":102,"source":"openstreetmap","sourceId":"node/1777846003"}},{"type":"Feature","geometry":{"type":"Point","coordinates":[69.1959506,41.2572321]},"properties":{"id":"osm-node-1777846008","name":null,"ref":null,"access":"both","wheelchair":"unknown","stationId":"osm-node-1777845992","stationName":"Olmazor (Sobir Rahimov)","distanceToStationCenter":64,"source":"openstreetmap","sourceId":"node/1777846008"}},{"type":"Feature","geometry":{"type":"Point","coordinates":[69.1959446,41.2576514]},"properties":{"id":"osm-node-1777846021","name":null,"ref":null,"access":"both","wheelchair":"unknown","stationId":"osm-node-1777845992","stationName":"Olmazor (Sobir Rahimov)","distanceToStationCenter":110,"source":"openstreetmap","sourceId":"node/1777846021"}},{"type":"Feature","geometry":{"type":"Point","coordinates":[69.1945697,41.2582318]},"properties":{"id":"osm-node-1777846030","name":null,"ref":null,"access":"both","wheelchair":"unknown","stationId":"osm-node-1777845992","stationName":"Olmazor (Sobir Rahimov)","distanceToStationCenter":216,"source":"openstreetmap","sourceId":"node/1777846030"}},{"type":"Feature","geometry":{"type":"Point","coordinates":[69.194065,41.2581004]},"properties":{"id":"osm-node-9368644898","name":null,"ref":null,"access":"both","wheelchair":"unknown","stationId":"osm-node-1777845992","stationName":"Olmazor (Sobir Rahimov)","distanceToStationCenter":233,"source":"openstreetmap","sourceId":"node/9368644898"}},{"type":"Feature","geometry":{"type":"Point","coordinates":[69.2738022,41.2987269]},"properties":{"id":"osm-node-661184747","name":"Oybek","ref":null,"access":"both","wheelchair":"unknown","stationId":"osm-node-1579080941","stationName":"Oybek","distanceToStationCenter":82,"source":"openstreetmap","sourceId":"node/661184747"}},{"type":"Feature","geometry":{"type":"Point","coordinates":[69.2730967,41.2983332]},"properties":{"id":"osm-node-661184754","name":"Oybek","ref":null,"access":"both","wheelchair":"unknown","stationId":"osm-node-1579080941","stationName":"Oybek","distanceToStationCenter":87,"source":"openstreetmap","sourceId":"node/661184754"}},{"type":"Feature","geometry":{"type":"Point","coordinates":[69.2724423,41.2989423]},"properties":{"id":"osm-node-661184760","name":"Oybek","ref":null,"access":"both","wheelchair":"unknown","stationId":"osm-node-1579080941","stationName":"Oybek","distanceToStationCenter":169,"source":"openstreetmap","sourceId":"node/661184760"}},{"type":"Feature","geometry":{"type":"Point","coordinates":[69.2741293,41.2972885]},"properties":{"id":"osm-node-1579080936","name":"Oybek","ref":null,"access":"both","wheelchair":"unknown","stationId":"osm-node-1579080941","stationName":"Oybek","distanceToStationCenter":81,"source":"openstreetmap","sourceId":"node/1579080936"}},{"type":"Feature","geometry":{"type":"Point","coordinates":[69.2749557,41.2976207]},"properties":{"id":"osm-node-1776785654","name":"Oybek","ref":null,"access":"both","wheelchair":"unknown","stationId":"osm-node-1579080941","stationName":"Oybek","distanceToStationCenter":87,"source":"openstreetmap","sourceId":"node/1776785654"}},{"type":"Feature","geometry":{"type":"Point","coordinates":[69.253666,41.3109574]},"properties":{"id":"osm-node-1777744036","name":"O'zbekiston","ref":null,"access":"both","wheelchair":"no","stationId":"osm-node-1777744035","stationName":"Ozbekiston","distanceToStationCenter":112,"source":"openstreetmap","sourceId":"node/1777744036"}},{"type":"Feature","geometry":{"type":"Point","coordinates":[69.253064,41.3110278]},"properties":{"id":"osm-node-1777744037","name":"O'zbekiston","ref":null,"access":"both","wheelchair":"no","stationId":"osm-node-1777744035","stationName":"Ozbekiston","distanceToStationCenter":106,"source":"openstreetmap","sourceId":"node/1777744037"}},{"type":"Feature","geometry":{"type":"Point","coordinates":[69.2528301,41.3116539]},"properties":{"id":"osm-node-1777744047","name":"O'zbekiston","ref":null,"access":"both","wheelchair":"unknown","stationId":"osm-node-1777744035","stationName":"Ozbekiston","distanceToStationCenter":58,"source":"openstreetmap","sourceId":"node/1777744047"}},{"type":"Feature","geometry":{"type":"Point","coordinates":[69.2537489,41.3116913]},"properties":{"id":"osm-node-1777744048","name":"O'zbekiston","ref":null,"access":"both","wheelchair":"no","stationId":"osm-node-1777744035","stationName":"Ozbekiston","distanceToStationCenter":40,"source":"openstreetmap","sourceId":"node/1777744048"}},{"type":"Feature","geometry":{"type":"Point","coordinates":[69.2537554,41.3126593]},"properties":{"id":"osm-node-1777744052","name":null,"ref":null,"access":"both","wheelchair":"unknown","stationId":"osm-node-1777744035","stationName":"Ozbekiston","distanceToStationCenter":85,"source":"openstreetmap","sourceId":"node/1777744052"}},{"type":"Feature","geometry":{"type":"Point","coordinates":[69.2532133,41.3128007]},"properties":{"id":"osm-node-5432790808","name":null,"ref":null,"access":"both","wheelchair":"unknown","stationId":"osm-node-1777744035","stationName":"Ozbekiston","distanceToStationCenter":97,"source":"openstreetmap","sourceId":"node/5432790808"}},{"type":"Feature","geometry":{"type":"Point","coordinates":[69.2547589,41.317491]},"properties":{"id":"osm-node-1777740155","name":null,"ref":null,"access":"both","wheelchair":"no","stationId":"osm-node-1777740154","stationName":"Paxtakor","distanceToStationCenter":43,"source":"openstreetmap","sourceId":"node/1777740155"}},{"type":"Feature","geometry":{"type":"Point","coordinates":[69.2561109,41.3175591]},"properties":{"id":"osm-node-5185753347","name":"Paxtakor","ref":null,"access":"both","wheelchair":"unknown","stationId":"osm-node-1777740154","stationName":"Paxtakor","distanceToStationCenter":89,"source":"openstreetmap","sourceId":"node/5185753347"}},{"type":"Feature","geometry":{"type":"Point","coordinates":[69.3099255,41.3215063]},"properties":{"id":"osm-node-1777037932","name":null,"ref":null,"access":"both","wheelchair":"unknown","stationId":"osm-node-1777037922","stationName":"Pushkin","distanceToStationCenter":110,"source":"openstreetmap","sourceId":"node/1777037932"}},{"type":"Feature","geometry":{"type":"Point","coordinates":[69.3122612,41.3223091]},"properties":{"id":"osm-node-1777037936","name":null,"ref":null,"access":"both","wheelchair":"unknown","stationId":"osm-node-1777037922","stationName":"Pushkin","distanceToStationCenter":105,"source":"openstreetmap","sourceId":"node/1777037936"}},{"type":"Feature","geometry":{"type":"Point","coordinates":[69.3008955,41.244492]},"properties":{"id":"osm-node-13322774128","name":"Qiyot","ref":null,"access":"both","wheelchair":"unknown","stationId":"osm-node-10537931295","stationName":"Qiyot","distanceToStationCenter":98,"source":"openstreetmap","sourceId":"node/13322774128"}},{"type":"Feature","geometry":{"type":"Point","coordinates":[69.2597195,41.2213123]},"properties":{"id":"osm-node-13326560028","name":"Quruvchilar","ref":null,"access":"both","wheelchair":"unknown","stationId":"osm-node-10637629352","stationName":"Quruvchilar (Stroiteley)","distanceToStationCenter":75,"source":"openstreetmap","sourceId":"node/13326560028"}},{"type":"Feature","geometry":{"type":"Point","coordinates":[69.327449,41.2377053]},"properties":{"id":"osm-node-7997001764","name":null,"ref":null,"access":"both","wheelchair":"unknown","stationId":"osm-node-10537927083","stationName":"Qo‘yliq","distanceToStationCenter":47,"source":"openstreetmap","sourceId":"node/7997001764"}},{"type":"Feature","geometry":{"type":"Point","coordinates":[69.2082905,41.2213851]},"properties":{"id":"osm-node-13352013991","name":null,"ref":null,"access":"both","wheelchair":"unknown","stationId":"osm-way-888864488","stationName":"Sergeli","distanceToStationCenter":95,"source":"openstreetmap","sourceId":"node/13352013991"}},{"type":"Feature","geometry":{"type":"Point","coordinates":[69.2186584,41.3323783]},"properties":{"id":"osm-node-1390572522","name":null,"ref":null,"access":"both","wheelchair":"unknown","stationId":"osm-node-1770328496","stationName":"Tinchlik","distanceToStationCenter":39,"source":"openstreetmap","sourceId":"node/1390572522"}},{"type":"Feature","geometry":{"type":"Point","coordinates":[69.2198394,41.3316917]},"properties":{"id":"osm-node-1770328506","name":null,"ref":null,"access":"both","wheelchair":"unknown","stationId":"osm-node-1770328496","stationName":"Tinchlik","distanceToStationCenter":91,"source":"openstreetmap","sourceId":"node/1770328506"}},{"type":"Feature","geometry":{"type":"Point","coordinates":[69.2201918,41.331959]},"properties":{"id":"osm-node-1770328516","name":null,"ref":null,"access":"both","wheelchair":"unknown","stationId":"osm-node-1770328496","stationName":"Tinchlik","distanceToStationCenter":98,"source":"openstreetmap","sourceId":"node/1770328516"}},{"type":"Feature","geometry":{"type":"Point","coordinates":[69.2188579,41.3327463]},"properties":{"id":"osm-node-1770328542","name":null,"ref":null,"access":"both","wheelchair":"unknown","stationId":"osm-node-1770328496","stationName":"Tinchlik","distanceToStationCenter":54,"source":"openstreetmap","sourceId":"node/1770328542"}},{"type":"Feature","geometry":{"type":"Point","coordinates":[69.2177947,41.3328794]},"properties":{"id":"osm-node-1770328548","name":null,"ref":null,"access":"both","wheelchair":"unknown","stationId":"osm-node-1770328496","stationName":"Tinchlik","distanceToStationCenter":128,"source":"openstreetmap","sourceId":"node/1770328548"}},{"type":"Feature","geometry":{"type":"Point","coordinates":[69.2859482,41.2445858]},"properties":{"id":"osm-node-13324929877","name":null,"ref":null,"access":"both","wheelchair":"unknown","stationId":"osm-node-10538303447","stationName":"Tolarik","distanceToStationCenter":83,"source":"openstreetmap","sourceId":"node/13324929877"}},{"type":"Feature","geometry":{"type":"Point","coordinates":[69.2859529,41.2444502]},"properties":{"id":"osm-node-13324929878","name":null,"ref":null,"access":"both","wheelchair":"unknown","stationId":"osm-node-10538303447","stationName":"Tolarik","distanceToStationCenter":84,"source":"openstreetmap","sourceId":"node/13324929878"}},{"type":"Feature","geometry":{"type":"Point","coordinates":[69.2884343,41.2940752]},"properties":{"id":"osm-node-1582352949","name":"Toshkent","ref":null,"access":"both","wheelchair":"unknown","stationId":"osm-node-1582352956","stationName":"Toshkent","distanceToStationCenter":106,"source":"openstreetmap","sourceId":"node/1582352949"}},{"type":"Feature","geometry":{"type":"Point","coordinates":[69.2854572,41.2920996]},"properties":{"id":"osm-node-1765136913","name":"Toshkent","ref":null,"access":"both","wheelchair":"unknown","stationId":"osm-node-1582352956","stationName":"Toshkent","distanceToStationCenter":231,"source":"openstreetmap","sourceId":"node/1765136913"}},{"type":"Feature","geometry":{"type":"Point","coordinates":[69.2860877,41.2915817]},"properties":{"id":"osm-node-1765136920","name":"Toshkent","ref":null,"access":"both","wheelchair":"unknown","stationId":"osm-node-1582352956","stationName":"Toshkent","distanceToStationCenter":234,"source":"openstreetmap","sourceId":"node/1765136920"}},{"type":"Feature","geometry":{"type":"Point","coordinates":[69.2863957,41.2927569]},"properties":{"id":"osm-node-1765136924","name":"Toshkent","ref":null,"access":"both","wheelchair":"unknown","stationId":"osm-node-1582352956","stationName":"Toshkent","distanceToStationCenter":126,"source":"openstreetmap","sourceId":"node/1765136924"}},{"type":"Feature","geometry":{"type":"Point","coordinates":[69.2858287,41.2918001]},"properties":{"id":"osm-node-1776779182","name":"Toshkent","ref":null,"access":"both","wheelchair":"unknown","stationId":"osm-node-1582352956","stationName":"Toshkent","distanceToStationCenter":229,"source":"openstreetmap","sourceId":"node/1776779182"}},{"type":"Feature","geometry":{"type":"Point","coordinates":[69.2870717,41.2921197]},"properties":{"id":"osm-node-1776779183","name":"Toshkent","ref":null,"access":"both","wheelchair":"unknown","stationId":"osm-node-1582352956","stationName":"Toshkent","distanceToStationCenter":141,"source":"openstreetmap","sourceId":"node/1776779183"}},{"type":"Feature","geometry":{"type":"Point","coordinates":[69.2874805,41.2923871]},"properties":{"id":"osm-node-1776779187","name":"Toshkent","ref":null,"access":"both","wheelchair":"unknown","stationId":"osm-node-1582352956","stationName":"Toshkent","distanceToStationCenter":102,"source":"openstreetmap","sourceId":"node/1776779187"}},{"type":"Feature","geometry":{"type":"Point","coordinates":[69.2888955,41.2937089]},"properties":{"id":"osm-node-1776779190","name":"Toshkent","ref":null,"access":"both","wheelchair":"unknown","stationId":"osm-node-1582352956","stationName":"Toshkent","distanceToStationCenter":109,"source":"openstreetmap","sourceId":"node/1776779190"}},{"type":"Feature","geometry":{"type":"Point","coordinates":[69.2961218,41.3764022]},"properties":{"id":"osm-node-7053509979","name":"Turkiston","ref":null,"access":"both","wheelchair":"unknown","stationId":"osm-node-7861940928","stationName":"Turkiston","distanceToStationCenter":125,"source":"openstreetmap","sourceId":"node/7053509979"}},{"type":"Feature","geometry":{"type":"Point","coordinates":[69.2952452,41.3765412]},"properties":{"id":"osm-node-7053517096","name":"Turkiston","ref":null,"access":"both","wheelchair":"unknown","stationId":"osm-node-7861940928","stationName":"Turkiston","distanceToStationCenter":127,"source":"openstreetmap","sourceId":"node/7053517096"}},{"type":"Feature","geometry":{"type":"Point","coordinates":[69.2966866,41.3783421]},"properties":{"id":"osm-node-7851505409","name":"Turkiston","ref":null,"access":"both","wheelchair":"unknown","stationId":"osm-node-7861940928","stationName":"Turkiston","distanceToStationCenter":107,"source":"openstreetmap","sourceId":"node/7851505409"}},{"type":"Feature","geometry":{"type":"Point","coordinates":[69.2957336,41.3781583]},"properties":{"id":"osm-node-7851505411","name":"Turkiston","ref":null,"access":"both","wheelchair":"unknown","stationId":"osm-node-7861940928","stationName":"Turkiston","distanceToStationCenter":75,"source":"openstreetmap","sourceId":"node/7851505411"}},{"type":"Feature","geometry":{"type":"Point","coordinates":[69.2436738,41.3124824]},"properties":{"id":"osm-node-1142950027","name":"Xalqlar Do'stligi","ref":null,"access":"both","wheelchair":"unknown","stationId":"osm-node-568770460","stationName":"Xalqlar doʻstligi","distanceToStationCenter":81,"source":"openstreetmap","sourceId":"node/1142950027"}},{"type":"Feature","geometry":{"type":"Point","coordinates":[69.2433198,41.3114588]},"properties":{"id":"osm-node-1142950516","name":"Xalqlar Do'stligi","ref":null,"access":"both","wheelchair":"no","stationId":"osm-node-568770460","stationName":"Xalqlar doʻstligi","distanceToStationCenter":52,"source":"openstreetmap","sourceId":"node/1142950516"}},{"type":"Feature","geometry":{"type":"Point","coordinates":[69.2419172,41.311419]},"properties":{"id":"osm-node-1577932575","name":"Xalqlar Do'stligi","ref":null,"access":"both","wheelchair":"unknown","stationId":"osm-node-568770460","stationName":"Xalqlar doʻstligi","distanceToStationCenter":112,"source":"openstreetmap","sourceId":"node/1577932575"}},{"type":"Feature","geometry":{"type":"Point","coordinates":[69.2431621,41.3113299]},"properties":{"id":"osm-node-3725779683","name":"Xalqlar Do'stligi","ref":null,"access":"both","wheelchair":"unknown","stationId":"osm-node-568770460","stationName":"Xalqlar doʻstligi","distanceToStationCenter":63,"source":"openstreetmap","sourceId":"node/3725779683"}},{"type":"Feature","geometry":{"type":"Point","coordinates":[69.2425686,41.3109652]},"properties":{"id":"osm-node-6154109557","name":"Xalqlar Do'stligi","ref":null,"access":"both","wheelchair":"unknown","stationId":"osm-node-568770460","stationName":"Xalqlar doʻstligi","distanceToStationCenter":113,"source":"openstreetmap","sourceId":"node/6154109557"}},{"type":"Feature","geometry":{"type":"Point","coordinates":[69.2706871,41.2306788]},"properties":{"id":"osm-node-13326560037","name":null,"ref":null,"access":"both","wheelchair":"unknown","stationId":"osm-node-10637629351","stationName":"Xonobod","distanceToStationCenter":77,"source":"openstreetmap","sourceId":"node/13326560037"}},{"type":"Feature","geometry":{"type":"Point","coordinates":[69.3581934,41.256441]},"properties":{"id":"osm-node-7997001763","name":"Bekat 6","ref":null,"access":"both","wheelchair":"unknown","stationId":"osm-node-10537927082","stationName":"Yangiobod","distanceToStationCenter":45,"source":"openstreetmap","sourceId":"node/7997001763"}},{"type":"Feature","geometry":{"type":"Point","coordinates":[69.3488952,41.2981344]},"properties":{"id":"osm-node-13418520188","name":null,"ref":null,"access":"both","wheelchair":"unknown","stationId":"osm-node-10537927079","stationName":"Yashnobod","distanceToStationCenter":96,"source":"openstreetmap","sourceId":"node/13418520188"}},{"type":"Feature","geometry":{"type":"Point","coordinates":[69.2844102,41.3133612]},"properties":{"id":"osm-node-1777051535","name":"Yunus Rajabiy","ref":null,"access":"both","wheelchair":"unknown","stationId":"osm-node-1777051512","stationName":"Yunus Rajabiy","distanceToStationCenter":95,"source":"openstreetmap","sourceId":"node/1777051535"}},{"type":"Feature","geometry":{"type":"Point","coordinates":[69.2923083,41.3674655]},"properties":{"id":"osm-node-4568986686","name":"Yunusobod","ref":null,"access":"both","wheelchair":"unknown","stationId":"osm-node-7053509943","stationName":"Yunusobod","distanceToStationCenter":69,"source":"openstreetmap","sourceId":"node/4568986686"}},{"type":"Feature","geometry":{"type":"Point","coordinates":[69.2912862,41.366355]},"properties":{"id":"osm-node-4759259236","name":"Yunusobod","ref":null,"access":"both","wheelchair":"unknown","stationId":"osm-node-7053509943","stationName":"Yunusobod","distanceToStationCenter":100,"source":"openstreetmap","sourceId":"node/4759259236"}},{"type":"Feature","geometry":{"type":"Point","coordinates":[69.2930447,41.3671149]},"properties":{"id":"osm-node-7053509980","name":"Yunusobod","ref":null,"access":"both","wheelchair":"unknown","stationId":"osm-node-7053509943","stationName":"Yunusobod","distanceToStationCenter":69,"source":"openstreetmap","sourceId":"node/7053509980"}},{"type":"Feature","geometry":{"type":"Point","coordinates":[69.2916942,41.36575]},"properties":{"id":"osm-node-7053509983","name":"Yunusobod","ref":null,"access":"both","wheelchair":"unknown","stationId":"osm-node-7053509943","stationName":"Yunusobod","distanceToStationCenter":131,"source":"openstreetmap","sourceId":"node/7053509983"}},{"type":"Feature","geometry":{"type":"Point","coordinates":[69.2475561,41.327616]},"properties":{"id":"osm-node-1786939640","name":"Gafur G'ulom","ref":null,"access":"both","wheelchair":"unknown","stationId":"osm-node-1539317100","stationName":"Gʻafur Gʻulom","distanceToStationCenter":147,"source":"openstreetmap","sourceId":"node/1786939640"}},{"type":"Feature","geometry":{"type":"Point","coordinates":[69.245817,41.3273441]},"properties":{"id":"osm-node-5433157103","name":"G'afur G'ulom","ref":null,"access":"both","wheelchair":"unknown","stationId":"osm-node-1539317100","stationName":"Gʻafur Gʻulom","distanceToStationCenter":60,"source":"openstreetmap","sourceId":"node/5433157103"}},{"type":"Feature","geometry":{"type":"Point","coordinates":[69.2880024,41.3540213]},"properties":{"id":"osm-node-1226725679","name":"Шахристан","ref":null,"access":"both","wheelchair":"yes","stationId":"osm-node-1633822600","stationName":"Shahriston","distanceToStationCenter":101,"source":"openstreetmap","sourceId":"node/1226725679"}},{"type":"Feature","geometry":{"type":"Point","coordinates":[69.2884948,41.3539495]},"properties":{"id":"osm-node-1633822602","name":"Шахристан","ref":null,"access":"both","wheelchair":"unknown","stationId":"osm-node-1633822600","stationName":"Shahriston","distanceToStationCenter":98,"source":"openstreetmap","sourceId":"node/1633822602"}},{"type":"Feature","geometry":{"type":"Point","coordinates":[69.2881585,41.3520122]},"properties":{"id":"osm-node-2564123992","name":"Шахристан","ref":null,"access":"both","wheelchair":"unknown","stationId":"osm-node-1633822600","stationName":"Shahriston","distanceToStationCenter":123,"source":"openstreetmap","sourceId":"node/2564123992"}},{"type":"Feature","geometry":{"type":"Point","coordinates":[69.2876253,41.3520446]},"properties":{"id":"osm-node-2564123993","name":"Шахристан","ref":null,"access":"both","wheelchair":"unknown","stationId":"osm-node-1633822600","stationName":"Shahriston","distanceToStationCenter":126,"source":"openstreetmap","sourceId":"node/2564123993"}},{"type":"Feature","geometry":{"type":"Point","coordinates":[69.203823,41.2739717]},"properties":{"id":"osm-node-854338139","name":"Chilonzor","ref":null,"access":"both","wheelchair":"unknown","stationId":"osm-node-854338154","stationName":"Chilonzor","distanceToStationCenter":105,"source":"openstreetmap","sourceId":"node/854338139"}},{"type":"Feature","geometry":{"type":"Point","coordinates":[69.2035896,41.2736667]},"properties":{"id":"osm-node-854338140","name":"Chilonzor","ref":null,"access":"both","wheelchair":"unknown","stationId":"osm-node-854338154","stationName":"Chilonzor","distanceToStationCenter":139,"source":"openstreetmap","sourceId":"node/854338140"}},{"type":"Feature","geometry":{"type":"Point","coordinates":[69.2047152,41.2735974]},"properties":{"id":"osm-node-854338141","name":"Chilonzor","ref":null,"access":"both","wheelchair":"unknown","stationId":"osm-node-854338154","stationName":"Chilonzor","distanceToStationCenter":87,"source":"openstreetmap","sourceId":"node/854338141"}},{"type":"Feature","geometry":{"type":"Point","coordinates":[69.2044562,41.273255]},"properties":{"id":"osm-node-854338142","name":"Chilonzor","ref":null,"access":"both","wheelchair":"unknown","stationId":"osm-node-854338154","stationName":"Chilonzor","distanceToStationCenter":130,"source":"openstreetmap","sourceId":"node/854338142"}},{"type":"Feature","geometry":{"type":"Point","coordinates":[69.2048738,41.2753646]},"properties":{"id":"osm-node-854338143","name":"Chilonzor","ref":null,"access":"both","wheelchair":"unknown","stationId":"osm-node-854338154","stationName":"Chilonzor","distanceToStationCenter":112,"source":"openstreetmap","sourceId":"node/854338143"}},{"type":"Feature","geometry":{"type":"Point","coordinates":[69.2055215,41.2746344]},"properties":{"id":"osm-node-854338144","name":"Chilonzor","ref":null,"access":"both","wheelchair":"unknown","stationId":"osm-node-854338154","stationName":"Chilonzor","distanceToStationCenter":55,"source":"openstreetmap","sourceId":"node/854338144"}},{"type":"Feature","geometry":{"type":"Point","coordinates":[69.2057423,41.2749294]},"properties":{"id":"osm-node-854338145","name":"Chilonzor","ref":null,"access":"both","wheelchair":"unknown","stationId":"osm-node-854338154","stationName":"Chilonzor","distanceToStationCenter":90,"source":"openstreetmap","sourceId":"node/854338145"}},{"type":"Feature","geometry":{"type":"Point","coordinates":[69.2045952,41.2750138]},"properties":{"id":"osm-node-5431967358","name":"Chilonzor","ref":null,"access":"both","wheelchair":"unknown","stationId":"osm-node-854338154","stationName":"Chilonzor","distanceToStationCenter":79,"source":"openstreetmap","sourceId":"node/5431967358"}},{"type":"Feature","geometry":{"type":"Point","coordinates":[69.2356423,41.3253381]},"properties":{"id":"osm-node-1390572520","name":"Chorsu","ref":null,"access":"both","wheelchair":"unknown","stationId":"osm-node-1577932485","stationName":"Chorsu","distanceToStationCenter":114,"source":"openstreetmap","sourceId":"node/1390572520"}},{"type":"Feature","geometry":{"type":"Point","coordinates":[69.2379263,41.3262661]},"properties":{"id":"osm-node-1577932476","name":"Chorsu","ref":null,"access":"both","wheelchair":"unknown","stationId":"osm-node-1577932485","stationName":"Chorsu","distanceToStationCenter":103,"source":"openstreetmap","sourceId":"node/1577932476"}},{"type":"Feature","geometry":{"type":"Point","coordinates":[69.2359727,41.3254082]},"properties":{"id":"osm-node-1777850319","name":"Chorsu","ref":null,"access":"both","wheelchair":"unknown","stationId":"osm-node-1577932485","stationName":"Chorsu","distanceToStationCenter":87,"source":"openstreetmap","sourceId":"node/1777850319"}}]}
